start=new Date('2022-09-16T00:00:00.000Z').valueOf();
sats=[{"COUNTRY_CODE":"US","EPHEMERIS_TYPE":"0","TIME_SYSTEM":"UTC","BSTAR":"0.00002255400000","ECCENTRICITY":"0.00012580","MEAN_MOTION_DDOT":"0.0000000000000","PERIOD":"95.592","REV_AT_EPOCH":"14511","OBJECT_ID":"2020-006AH","OBJECT_NAME":"STARLINK-1174","LAUNCH_DATE":"2020-01-29","CENTER_NAME":"EARTH","MEAN_MOTION":"15.06404378","SITE":"AFETR","NORAD_CAT_ID":"45075","FILE":"3574601","ELEMENT_SET_NO":"999","MEAN_ANOMALY":"252.5650","MEAN_MOTION_DOT":"0.00000055","RCS_SIZE":"LARGE","CLASSIFICATION_TYPE":"U","RA_OF_ASC_NODE":"214.1080","MEAN_ELEMENT_THEORY":"SGP4","TLE_LINE2":"2 45075  53.0551 214.1080 0001258 107.5477 252.5650 15.06404378145110","GP_ID":"212641238","DECAY_DATE":null,"INCLINATION":"53.0551","OBJECT_TYPE":"PAYLOAD","APOAPSIS":"548.071","EPOCH":"2022-09-15T07:10:46.772544","REF_FRAME":"TEME","SEMIMAJOR_AXIS":"6925.335","PERIAPSIS":"546.329","ARG_OF_PERICENTER":"107.5477","TLE_LINE1":"1 45075U 20006AH  22258.29915246  .00000055  00000-0  22554-4 0  9998"},{"APOAPSIS":"548.409","EPOCH":"2022-09-15T13:42:24.348096","REF_FRAME":"TEME","SEMIMAJOR_AXIS":"6925.722","PERIAPSIS":"546.765","ARG_OF_PERICENTER":"74.4334","TLE_LINE1":"1 45076U 20006AJ  22258.57111514 -.00012329  00000-0 -81292-3 0  9998","MEAN_ANOMALY":"285.6786","RA_OF_ASC_NODE":"212.8872","CLASSIFICATION_TYPE":"U","RCS_SIZE":"LARGE","MEAN_MOTION_DOT":"-0.00012329","MEAN_ELEMENT_THEORY":"SGP4","TLE_LINE2":"2 45076  53.0550 212.8872 0001187  74.4334 285.6786 15.06278181145151","GP_ID":"212678648","DECAY_DATE":null,"OBJECT_TYPE":"PAYLOAD","INCLINATION":"53.0550","OBJECT_ID":"2020-006AJ","OBJECT_NAME":"STARLINK-1180","SITE":"AFETR","LAUNCH_DATE":"2020-01-29","CENTER_NAME":"EARTH","MEAN_MOTION":"15.06278181","FILE":"3575050","NORAD_CAT_ID":"45076","ELEMENT_SET_NO":"999","COUNTRY_CODE":"US","EPHEMERIS_TYPE":"0","TIME_SYSTEM":"UTC","BSTAR":"-0.00081292000000","ECCENTRICITY":"0.00011870","PERIOD":"95.600","REV_AT_EPOCH":"14515","MEAN_MOTION_DDOT":"0.0000000000000"},{"MEAN_MOTION_DDOT":"0.0000000000000","PERIOD":"95.592","REV_AT_EPOCH":"14518","ECCENTRICITY":"0.00015730","BSTAR":"0.00016602000000","TIME_SYSTEM":"UTC","EPHEMERIS_TYPE":"0","COUNTRY_CODE":"US","ELEMENT_SET_NO":"999","NORAD_CAT_ID":"45078","FILE":"3575050","LAUNCH_DATE":"2020-01-29","CENTER_NAME":"EARTH","MEAN_MOTION":"15.06405513","SITE":"AFETR","OBJECT_NAME":"STARLINK-1177","OBJECT_ID":"2020-006AL","INCLINATION":"53.0547","OBJECT_TYPE":"PAYLOAD","DECAY_DATE":null,"GP_ID":"212678894","TLE_LINE2":"2 45078  53.0547 211.6199 0001573  69.4326 290.6832 15.06405513145184","MEAN_ELEMENT_THEORY":"SGP4","MEAN_MOTION_DOT":"0.00002193","RCS_SIZE":"LARGE","CLASSIFICATION_TYPE":"U","RA_OF_ASC_NODE":"211.6199","MEAN_ANOMALY":"290.6832","TLE_LINE1":"1 45078U 20006AL  22258.85572981  .00002193  00000-0  16602-3 0  9999","ARG_OF_PERICENTER":"69.4326","PERIAPSIS":"546.107","SEMIMAJOR_AXIS":"6925.332","REF_FRAME":"TEME","EPOCH":"2022-09-15T20:32:15.055584","APOAPSIS":"548.286"},{"PERIOD":"95.592","REV_AT_EPOCH":"14514","MEAN_MOTION_DDOT":"0.0000000000000","ECCENTRICITY":"0.00012040","BSTAR":"0.00011749000000","TIME_SYSTEM":"UTC","EPHEMERIS_TYPE":"0","COUNTRY_CODE":"US","ELEMENT_SET_NO":"999","FILE":"3575050","NORAD_CAT_ID":"45079","SITE":"AFETR","CENTER_NAME":"EARTH","LAUNCH_DATE":"2020-01-29","MEAN_MOTION":"15.06398523","OBJECT_NAME":"STARLINK-1149","OBJECT_ID":"2020-006AM","OBJECT_TYPE":"PAYLOAD","INCLINATION":"53.0565","DECAY_DATE":null,"GP_ID":"212678147","TLE_LINE2":"2 45079  53.0565 212.8972 0001204 107.1829 252.9292 15.06398523145145","MEAN_ELEMENT_THEORY":"SGP4","RA_OF_ASC_NODE":"212.8972","MEAN_MOTION_DOT":"0.00001469","RCS_SIZE":"LARGE","CLASSIFICATION_TYPE":"U","MEAN_ANOMALY":"252.9292","TLE_LINE1":"1 45079U 20006AM  22258.56728770  .00001469  00000-0  11749-3 0  9999","ARG_OF_PERICENTER":"107.1829","PERIAPSIS":"546.384","SEMIMAJOR_AXIS":"6925.353","REF_FRAME":"TEME","EPOCH":"2022-09-15T13:36:53.657280","APOAPSIS":"548.052"},{"OBJECT_NAME":"STARLINK-1153","OBJECT_ID":"2020-006AN","NORAD_CAT_ID":"45080","FILE":"3575050","ELEMENT_SET_NO":"999","LAUNCH_DATE":"2020-01-29","MEAN_MOTION":"15.06396333","CENTER_NAME":"EARTH","SITE":"AFETR","TIME_SYSTEM":"UTC","COUNTRY_CODE":"US","EPHEMERIS_TYPE":"0","ECCENTRICITY":"0.00014510","MEAN_MOTION_DDOT":"0.0000000000000","REV_AT_EPOCH":"14515","PERIOD":"95.592","BSTAR":"0.00011861000000","REF_FRAME":"TEME","SEMIMAJOR_AXIS":"6925.360","APOAPSIS":"548.230","EPOCH":"2022-09-15T13:48:52.521696","ARG_OF_PERICENTER":"74.0328","TLE_LINE1":"1 45080U 20006AN  22258.57560789  .00001485  00000-0  11861-3 0  9999","PERIAPSIS":"546.220","MEAN_ELEMENT_THEORY":"SGP4","MEAN_ANOMALY":"286.0821","RCS_SIZE":"LARGE","MEAN_MOTION_DOT":"0.00001485","CLASSIFICATION_TYPE":"U","RA_OF_ASC_NODE":"212.8719","DECAY_DATE":null,"INCLINATION":"53.0554","OBJECT_TYPE":"PAYLOAD","TLE_LINE2":"2 45080  53.0554 212.8719 0001451  74.0328 286.0821 15.06396333145158","GP_ID":"212677898"},{"PERIAPSIS":"546.243","TLE_LINE1":"1 45081U 20006AP  22258.81792479  .00000940  00000-0  82009-4 0  9998","ARG_OF_PERICENTER":"76.2851","EPOCH":"2022-09-15T19:37:48.701856","APOAPSIS":"548.197","SEMIMAJOR_AXIS":"6925.355","REF_FRAME":"TEME","GP_ID":"212679147","TLE_LINE2":"2 45081  53.0549 211.7683 0001411  76.2851 283.8295 15.06397935145195","OBJECT_TYPE":"PAYLOAD","INCLINATION":"53.0549","DECAY_DATE":null,"RA_OF_ASC_NODE":"211.7683","MEAN_MOTION_DOT":"0.00000940","RCS_SIZE":"LARGE","CLASSIFICATION_TYPE":"U","MEAN_ANOMALY":"283.8295","MEAN_ELEMENT_THEORY":"SGP4","SITE":"AFETR","LAUNCH_DATE":"2020-01-29","MEAN_MOTION":"15.06397935","CENTER_NAME":"EARTH","ELEMENT_SET_NO":"999","FILE":"3575050","NORAD_CAT_ID":"45081","OBJECT_ID":"2020-006AP","OBJECT_NAME":"STARLINK-1151","BSTAR":"0.00008200900000","PERIOD":"95.592","REV_AT_EPOCH":"14519","MEAN_MOTION_DDOT":"0.0000000000000","ECCENTRICITY":"0.00014110","EPHEMERIS_TYPE":"0","COUNTRY_CODE":"US","TIME_SYSTEM":"UTC"},{"PERIOD":"95.592","REV_AT_EPOCH":"14515","MEAN_MOTION_DDOT":"0.0000000000000","ECCENTRICITY":"0.00020660","BSTAR":"0.00003765600000","TIME_SYSTEM":"UTC","EPHEMERIS_TYPE":"0","COUNTRY_CODE":"US","ELEMENT_SET_NO":"999","FILE":"3575050","NORAD_CAT_ID":"45082","SITE":"AFETR","LAUNCH_DATE":"2020-01-29","CENTER_NAME":"EARTH","MEAN_MOTION":"15.06400544","OBJECT_NAME":"STARLINK-1160","OBJECT_ID":"2020-006AQ","OBJECT_TYPE":"PAYLOAD","INCLINATION":"53.0539","DECAY_DATE":null,"GP_ID":"212679394","TLE_LINE2":"2 45082  53.0539 212.7247 0002066  58.8379 301.2812 15.06400544145157","MEAN_ELEMENT_THEORY":"SGP4","RA_OF_ASC_NODE":"212.7247","MEAN_MOTION_DOT":"0.00000279","RCS_SIZE":"LARGE","CLASSIFICATION_TYPE":"U","MEAN_ANOMALY":"301.2812","TLE_LINE1":"1 45082U 20006AQ  22258.60783153  .00000279  00000-0  37656-4 0  9998","ARG_OF_PERICENTER":"58.8379","PERIAPSIS":"545.781","SEMIMAJOR_AXIS":"6925.347","REF_FRAME":"TEME","EPOCH":"2022-09-15T14:35:16.644192","APOAPSIS":"548.643"},{"OBJECT_ID":"2020-006AR","OBJECT_NAME":"STARLINK-1190","MEAN_MOTION":"15.06393342","LAUNCH_DATE":"2020-01-29","CENTER_NAME":"EARTH","SITE":"AFETR","NORAD_CAT_ID":"45083","FILE":"3574601","ELEMENT_SET_NO":"999","COUNTRY_CODE":"US","EPHEMERIS_TYPE":"0","TIME_SYSTEM":"UTC","BSTAR":"0.00005866100000","ECCENTRICITY":"0.00013950","MEAN_MOTION_DDOT":"0.0000000000000","REV_AT_EPOCH":"14484","PERIOD":"95.593","APOAPSIS":"548.200","EPOCH":"2022-09-15T08:59:36.436128","REF_FRAME":"TEME","SEMIMAJOR_AXIS":"6925.369","PERIAPSIS":"546.268","ARG_OF_PERICENTER":"84.9660","TLE_LINE1":"1 45083U 20006AR  22258.37472727  .00000592  00000-0  58661-4 0  9992","MEAN_ANOMALY":"275.1488","RCS_SIZE":"LARGE","CLASSIFICATION_TYPE":"U","MEAN_MOTION_DOT":"0.00000592","RA_OF_ASC_NODE":"233.7748","MEAN_ELEMENT_THEORY":"SGP4","TLE_LINE2":"2 45083  53.0531 233.7748 0001395  84.9660 275.1488 15.06393342144846","GP_ID":"212642486","DECAY_DATE":null,"INCLINATION":"53.0531","OBJECT_TYPE":"PAYLOAD"},{"CENTER_NAME":"EARTH","LAUNCH_DATE":"2020-01-29","MEAN_MOTION":"15.06402337","SITE":"AFETR","ELEMENT_SET_NO":"999","NORAD_CAT_ID":"45084","FILE":"3575050","OBJECT_ID":"2020-006AS","OBJECT_NAME":"STARLINK-1173","BSTAR":"0.00012387000000","MEAN_MOTION_DDOT":"0.0000000000000","PERIOD":"95.592","REV_AT_EPOCH":"14546","ECCENTRICITY":"0.00013620","EPHEMERIS_TYPE":"0","COUNTRY_CODE":"US","TIME_SYSTEM":"UTC","PERIAPSIS":"546.263","TLE_LINE1":"1 45084U 20006AS  22258.75436609  .00001564  00000-0  12387-3 0  9998","ARG_OF_PERICENTER":"72.4746","EPOCH":"2022-09-15T18:06:17.230176","APOAPSIS":"548.150","SEMIMAJOR_AXIS":"6925.341","REF_FRAME":"TEME","GP_ID":"212678397","TLE_LINE2":"2 45084  53.0551 192.0821 0001362  72.4746 287.6391 15.06402337145464","INCLINATION":"53.0551","OBJECT_TYPE":"PAYLOAD","DECAY_DATE":null,"MEAN_MOTION_DOT":"0.00001564","RCS_SIZE":"LARGE","CLASSIFICATION_TYPE":"U","RA_OF_ASC_NODE":"192.0821","MEAN_ANOMALY":"287.6391","MEAN_ELEMENT_THEORY":"SGP4"},{"OBJECT_NAME":"STARLINK-1179","OBJECT_ID":"2020-006AT","NORAD_CAT_ID":"45085","FILE":"3575050","ELEMENT_SET_NO":"999","CENTER_NAME":"EARTH","LAUNCH_DATE":"2020-01-29","MEAN_MOTION":"15.06405753","SITE":"AFETR","TIME_SYSTEM":"UTC","COUNTRY_CODE":"US","EPHEMERIS_TYPE":"0","ECCENTRICITY":"0.00021580","MEAN_MOTION_DDOT":"0.0000000000000","PERIOD":"95.592","REV_AT_EPOCH":"14547","BSTAR":"0.00049255000000","REF_FRAME":"TEME","SEMIMAJOR_AXIS":"6925.331","APOAPSIS":"548.690","EPOCH":"2022-09-15T19:36:31.670208","ARG_OF_PERICENTER":"70.6914","TLE_LINE1":"1 45085U 20006AT  22258.81703322  .00007064  00000-0  49255-3 0  9990","PERIAPSIS":"545.701","MEAN_ELEMENT_THEORY":"SGP4","MEAN_ANOMALY":"289.4308","CLASSIFICATION_TYPE":"U","RCS_SIZE":"LARGE","MEAN_MOTION_DOT":"0.00007064","RA_OF_ASC_NODE":"191.7897","DECAY_DATE":null,"INCLINATION":"53.0539","OBJECT_TYPE":"PAYLOAD","TLE_LINE2":"2 45085  53.0539 191.7897 0002158  70.6914 289.4308 15.06405753145475","GP_ID":"212678649"}];
